{"type": "FeatureCollection", "features": [ {"type": "Feature", "properties": {"norad_id": 66979, "name": "STARLINK-36107", "group": "last-30-days", "lat": -20.734999600642723, "lon": -66.63982910182123, "alt_km": 376.0622276773747, "timestamp": "2025-12-25T11:37:43.135730+00:00", "meta": {"OBJECT_NAME": "STARLINK-36107", "OBJECT_ID": "2025-288W", "EPOCH": "2025-12-25T04:00:01.998720", "MEAN_MOTION": 15.659408, "ECCENTRICITY": 0.0001277, "INCLINATION": 43.0003, "RA_OF_ASC_NODE": 91.2913, "ARG_OF_PERICENTER": 268.4745, "MEAN_ANOMALY": 309.6126, "EPHEMERIS_TYPE": 0, "CLASSIFICATION_TYPE": "U", "NORAD_CAT_ID": 66979, "ELEMENT_SET_NO": 999, "REV_AT_EPOCH": 382, "BSTAR": -0.02155, "MEAN_MOTION_DOT": -0.01990481, "MEAN_MOTION_DDOT": 0}, "tle": {"line1": "1 66979U 25288W   25359.16668980 -.01990481  00000+0 -21550-1 0  9997", "line2": "2 66979  43.0003  91.2913 0001277 268.4745 309.6126 15.65940800  3825"}}, "geometry": {"type": "Point", "coordinates": [-66.63982910182123, -20.734999600642723]}}, {"type": "Feature", "properties": {"norad_id": 66980, "name": "STARLINK-36086", "group": "last-30-days", "lat": -21.92023429730215, "lon": -65.03036956902734, "alt_km": 376.0478733252776, "timestamp": "2025-12-25T11:37:43.135740+00:00", "meta": {"OBJECT_NAME": "STARLINK-36086", "OBJECT_ID": "2025-288X", "EPOCH": "2025-12-25T04:00:01.998720", "MEAN_MOTION": 15.65943744, "ECCENTRICITY": 0.0001321, "INCLINATION": 43.0004, "RA_OF_ASC_NODE": 91.2863, "ARG_OF_PERICENTER": 265.2534, "MEAN_ANOMALY": 314.7459, "EPHEMERIS_TYPE": 0, "CLASSIFICATION_TYPE": "U", "NORAD_CAT_ID": 66980, "ELEMENT_SET_NO": 999, "REV_AT_EPOCH": 382, "BSTAR": -0.021544, "MEAN_MOTION_DOT": -0.0199028, "MEAN_MOTION_DDOT": 0}, "tle": {"line1": "1 66980U 25288X   25359.16668980 -.01990280  00000+0 -21544-1 0  9999", "line2": "2 66980  43.0004  91.2863 0001321 265.2534 314.7459 15.65943744  3829"}}, "geometry": {"type": "Point", "coordinates": [-65.03036956902734, -21.92023429730215]}}, {"type": "Feature", "properties": {"norad_id": 66981, "name": "STARLINK-36142", "group": "last-30-days", "lat": -23.091097319079505, "lon": -63.39123535260661, "alt_km": 376.157253668197, "timestamp": "2025-12-25T11:37:43.135760+00:00", "meta": {"OBJECT_NAME": "STARLINK-36142", "OBJECT_ID": "2025-288Y", "EPOCH": "2025-12-25T04:00:01.998720", "MEAN_MOTION": 15.65940178, "ECCENTRICITY": 0.0001287, "INCLINATION": 43.0005, "RA_OF_ASC_NODE": 91.2817, "ARG_OF_PERICENTER": 266.5114, "MEAN_ANOMALY": 315.4102, "EPHEMERIS_TYPE": 0, "CLASSIFICATION_TYPE": "U", "NORAD_CAT_ID": 66981, "ELEMENT_SET_NO": 999, "REV_AT_EPOCH": 382, "BSTAR": -0.021536, "MEAN_MOTION_DOT": -0.01989321, "MEAN_MOTION_DDOT": 0}, "tle": {"line1": "1 66981U 25288Y   25359.16668980 -.01989321  00000+0 -21536-1 0  9995", "line2": "2 66981  43.0005  91.2817 0001287 266.5114 315.4102 15.65940178  3820"}}, "geometry": {"type": "Point", "coordinates": [-63.39123535260661, -23.091097319079505]}}, {"type": "Feature", "properties": {"norad_id": 66982, "name": "STARLINK-36113", "group": "last-30-days", "lat": -24.243287767557, "lon": -61.7257368371696, "alt_km": 376.15189783179267, "timestamp": "2025-12-25T11:37:43.135772+00:00", "meta": {"OBJECT_NAME": "STARLINK-36113", "OBJECT_ID": "2025-288Z", "EPOCH": "2025-12-25T04:00:01.998720", "MEAN_MOTION": 15.65942488, "ECCENTRICITY": 0.0001309, "INCLINATION": 43.0003, "RA_OF_ASC_NODE": 91.2765, "ARG_OF_PERICENTER": 263.5745, "MEAN_ANOMALY": 320.2601, "EPHEMERIS_TYPE": 0, "CLASSIFICATION_TYPE": "U", "NORAD_CAT_ID": 66982, "ELEMENT_SET_NO": 999, "REV_AT_EPOCH": 382, "BSTAR": -0.021519, "MEAN_MOTION_DOT": -0.01988117, "MEAN_MOTION_DDOT": 0}, "tle": {"line1": "1 66982U 25288Z   25359.16668980 -.01988117  00000+0 -21519-1 0  9999", "line2": "2 66982  43.0003  91.2765 0001309 263.5745 320.2601 15.65942488  3827"}}, "geometry": {"type": "Point", "coordinates": [-61.7257368371696, -24.243287767557]}}, {"type": "Feature", "properties": {"norad_id": 66983, "name": "STARLINK-36145", "group": "last-30-days", "lat": -26.490126240799437, "lon": -58.3029917004478, "alt_km": 376.31155636815583, "timestamp": "2025-12-25T11:37:43.135782+00:00", "meta": {"OBJECT_NAME": "STARLINK-36145", "OBJECT_ID": "2025-288AA", "EPOCH": "2025-12-25T04:00:01.998720", "MEAN_MOTION": 15.65940931, "ECCENTRICITY": 0.0001336, "INCLINATION": 43.0007, "RA_OF_ASC_NODE": 91.267, "ARG_OF_PERICENTER": 267.0224, "MEAN_ANOMALY": 320.647, "EPHEMERIS_TYPE": 0, "CLASSIFICATION_TYPE": "U", "NORAD_CAT_ID": 66983, "ELEMENT_SET_NO": 999, "REV_AT_EPOCH": 382, "BSTAR": -0.021516, "MEAN_MOTION_DOT": -0.01987812, "MEAN_MOTION_DDOT": 0}, "tle": {"line1": "1 66983U 25288AA  25359.16668980 -.01987812  00000+0 -21516-1 0  9998", "line2": "2 66983  43.0007  91.2670 0001336 267.0224 320.6470 15.65940931  3827"}}, "geometry": {"type": "Point", "coordinates": [-58.3029917004478, -26.490126240799437]}}, {"type": "Feature", "properties": {"norad_id": 66984, "name": "STARLINK-35591", "group": "last-30-days", "lat": -25.37663134804456, "lon": -60.03081987230343, "alt_km": 376.16731266530405, "timestamp": "2025-12-25T11:37:43.135792+00:00", "meta": {"OBJECT_NAME": "STARLINK-35591", "OBJECT_ID": "2025-288AB", "EPOCH": "2025-12-25T04:00:01.998720", "MEAN_MOTION": 15.65941146, "ECCENTRICITY": 0.000139, "INCLINATION": 43.0006, "RA_OF_ASC_NODE": 91.2714, "ARG_OF_PERICENTER": 263.129, "MEAN_ANOMALY": 322.6232, "EPHEMERIS_TYPE": 0, "CLASSIFICATION_TYPE": "U", "NORAD_CAT_ID": 66984, "ELEMENT_SET_NO": 999, "REV_AT_EPOCH": 382, "BSTAR": -0.021509, "MEAN_MOTION_DOT": -0.01987294, "MEAN_MOTION_DDOT": 0}, "tle": {"line1": "1 66984U 25288AB  25359.16668980 -.01987294  00000+0 -21509-1 0  9995", "line2": "2 66984  43.0006  91.2714 0001390 263.1290 322.6232 15.65941146  3823"}}, "geometry": {"type": "Point", "coordinates": [-60.03081987230343, -25.37663134804456]}}, {"type": "Feature", "properties": {"norad_id": 66985, "name": "STARLINK-36103", "group": "last-30-days", "lat": -27.58272460167865, "lon": -56.54149495864835, "alt_km": 376.3287643315907, "timestamp": "2025-12-25T11:37:43.135805+00:00", "meta": {"OBJECT_NAME": "STARLINK-36103", "OBJECT_ID": "2025-288AC", "EPOCH": "2025-12-25T04:00:01.998720", "MEAN_MOTION": 15.65936545, "ECCENTRICITY": 0.0001389, "INCLINATION": 43.0007, "RA_OF_ASC_NODE": 91.2619, "ARG_OF_PERICENTER": 266.3389, "MEAN_ANOMALY": 323.251, "EPHEMERIS_TYPE": 0, "CLASSIFICATION_TYPE": "U", "NORAD_CAT_ID": 66985, "ELEMENT_SET_NO": 999, "REV_AT_EPOCH": 382, "BSTAR": -0.021468, "MEAN_MOTION_DOT": -0.01983606, "MEAN_MOTION_DDOT": 0}, "tle": {"line1": "1 66985U 25288AC  25359.16668980 -.01983606  00000+0 -21468-1 0  9993", "line2": "2 66985  43.0007  91.2619 0001389 266.3389 323.2510 15.65936545  3824"}}, "geometry": {"type": "Point", "coordinates": [-56.54149495864835, -27.58272460167865]}}, {"type": "Feature", "properties": {"norad_id": 66986, "name": "STARLINK-36135", "group": "last-30-days", "lat": -28.65318295287812, "lon": -54.74361559046867, "alt_km": 376.3861165534736, "timestamp": "2025-12-25T11:37:43.135815+00:00", "meta": {"OBJECT_NAME": "STARLINK-36135", "OBJECT_ID": "2025-288AD", "EPOCH": "2025-12-25T04:00:01.998720", "MEAN_MOTION": 15.65940696, "ECCENTRICITY": 0.0001367, "INCLINATION": 43.0005, "RA_OF_ASC_NODE": 91.2566, "ARG_OF_PERICENTER": 266.2065, "MEAN_ANOMALY": 325.2999, "EPHEMERIS_TYPE": 0, "CLASSIFICATION_TYPE": "U", "NORAD_CAT_ID": 66986, "ELEMENT_SET_NO": 999, "REV_AT_EPOCH": 382, "BSTAR": -0.021544, "MEAN_MOTION_DOT": -0.0199008, "MEAN_MOTION_DDOT": 0}, "tle": {"line1": "1 66986U 25288AD  25359.16668980 -.01990080  00000+0 -21544-1 0  9993", "line2": "2 66986  43.0005  91.2566 0001367 266.2065 325.2999 15.65940696  3825"}}, "geometry": {"type": "Point", "coordinates": [-54.74361559046867, -28.65318295287812]}}, {"type": "Feature", "properties": {"norad_id": 66987, "name": "STARLINK-36147", "group": "last-30-days", "lat": -29.699101448912412, "lon": -52.908317176472806, "alt_km": 376.49097745623476, "timestamp": "2025-12-25T11:37:43.135825+00:00", "meta": {"OBJECT_NAME": "STARLINK-36147", "OBJECT_ID": "2025-288AE", "EPOCH": "2025-12-25T04:00:01.998720", "MEAN_MOTION": 15.65946459, "ECCENTRICITY": 0.0001253, "INCLINATION": 43.0004, "RA_OF_ASC_NODE": 91.2524, "ARG_OF_PERICENTER": 266.6429, "MEAN_ANOMALY": 326.777, "EPHEMERIS_TYPE": 0, "CLASSIFICATION_TYPE": "U", "NORAD_CAT_ID": 66987, "ELEMENT_SET_NO": 999, "REV_AT_EPOCH": 382, "BSTAR": -0.021612, "MEAN_MOTION_DOT": -0.01995947, "MEAN_MOTION_DDOT": 0}, "tle": {"line1": "1 66987U 25288AE  25359.16668980 -.01995947  00000+0 -21612-1 0  9997", "line2": "2 66987  43.0004  91.2524 0001253 266.6429 326.7770 15.65946459  3827"}}, "geometry": {"type": "Point", "coordinates": [-52.908317176472806, -29.699101448912412]}}, {"type": "Feature", "properties": {"norad_id": 66988, "name": "YAOGAN-47", "group": "last-30-days", "lat": -2.91457833874155, "lon": 65.02276806520767, "alt_km": 499.33292778843315, "timestamp": "2025-12-25T11:37:43.135835+00:00", "meta": {"OBJECT_NAME": "YAOGAN-47", "OBJECT_ID": "2025-289A", "EPOCH": "2025-12-20T02:21:43.539840", "MEAN_MOTION": 15.23243112, "ECCENTRICITY": 6.467e-05, "INCLINATION": 97.5265, "RA_OF_ASC_NODE": 59.2376, "ARG_OF_PERICENTER": 91.4531, "MEAN_ANOMALY": 268.678, "EPHEMERIS_TYPE": 0, "CLASSIFICATION_TYPE": "U", "NORAD_CAT_ID": 66988, "ELEMENT_SET_NO": 999, "REV_AT_EPOCH": 166, "BSTAR": 0.00010945697, "MEAN_MOTION_DOT": 2.52e-05, "MEAN_MOTION_DDOT": 0}, "tle": {"line1": "1 66988U 25289A   25354.09842060  .00002520  00000+0  10946-3 0  9992", "line2": "2 66988  97.5265  59.2376 0000646  91.4531 268.6780 15.23243112  1668"}}, "geometry": {"type": "Point", "coordinates": [65.02276806520767, -2.91457833874155]}}]}